start=new Date('2021-10-26T00:00:00.000Z').valueOf();
sats=[{"BSTAR":"0.00007374900000","GP_ID":"188146966","REV_AT_EPOCH":"3889","ECCENTRICITY":"0.00012480","MEAN_MOTION":"15.06404439","PERIOD":"95.592","LAUNCH_DATE":"2021-02-16","MEAN_MOTION_DDOT":"0.0000000000000","TIME_SYSTEM":"UTC","CLASSIFICATION_TYPE":"U","PERIAPSIS":"546.336","REF_FRAME":"TEME","OBJECT_TYPE":"PAYLOAD","NORAD_CAT_ID":"47622","MEAN_ANOMALY":"279.6236","TLE_LINE1":"1 47622U 21012C   21298.53979879  .00000817  00000-0  73749-4 0  9996","INCLINATION":"53.0566","RA_OF_ASC_NODE":"37.0019","OBJECT_ID":"2021-012C","CENTER_NAME":"EARTH","EPOCH":"2021-10-25T12:57:18.615456","ELEMENT_SET_NO":"999","ARG_OF_PERICENTER":"80.4894","RCS_SIZE":"LARGE","MEAN_MOTION_DOT":"0.00000817","MEAN_ELEMENT_THEORY":"SGP4","EPHEMERIS_TYPE":"0","APOAPSIS":"548.064","DECAY_DATE":null,"SITE":"AFETR","SEMIMAJOR_AXIS":"6925.335","OBJECT_NAME":"STARLINK-1645","COUNTRY_CODE":"US","TLE_LINE2":"2 47622  53.0566  37.0019 0001248  80.4894 279.6236 15.06404439 38895","FILE":"3183531"},{"FILE":"3183189","OBJECT_NAME":"STARLINK-1655","SEMIMAJOR_AXIS":"6925.344","TLE_LINE2":"2 47623  53.0567 332.8450 0000993  93.0101 267.1001 15.06401494 39788","COUNTRY_CODE":"US","DECAY_DATE":null,"SITE":"AFETR","APOAPSIS":"547.897","EPHEMERIS_TYPE":"0","ARG_OF_PERICENTER":"93.0101","RCS_SIZE":"LARGE","MEAN_ELEMENT_THEORY":"SGP4","MEAN_MOTION_DOT":"-0.00000607","ELEMENT_SET_NO":"999","EPOCH":"2021-10-25T08:27:17.447328","CENTER_NAME":"EARTH","RA_OF_ASC_NODE":"332.8450","OBJECT_ID":"2021-012D","OBJECT_TYPE":"PAYLOAD","MEAN_ANOMALY":"267.1001","NORAD_CAT_ID":"47623","INCLINATION":"53.0567","TLE_LINE1":"1 47623U 21012D   21298.35228527 -.00000607  00000-0 -21891-4 0  9994","CLASSIFICATION_TYPE":"U","LAUNCH_DATE":"2021-02-16","TIME_SYSTEM":"UTC","MEAN_MOTION_DDOT":"0.0000000000000","REF_FRAME":"TEME","PERIAPSIS":"546.521","ECCENTRICITY":"0.00009930","PERIOD":"95.592","MEAN_MOTION":"15.06401494","GP_ID":"188116423","BSTAR":"-0.00002189100000","REV_AT_EPOCH":"3978"},{"APOAPSIS":"547.982","EPHEMERIS_TYPE":"0","DECAY_DATE":null,"SITE":"AFETR","SEMIMAJOR_AXIS":"6925.340","OBJECT_NAME":"STARLINK-1669","COUNTRY_CODE":"US","TLE_LINE2":"2 47624  53.0562  16.9816 0001122  93.9094 266.2024 15.06402935 39174","FILE":"3183532","ELEMENT_SET_NO":"999","ARG_OF_PERICENTER":"93.9094","MEAN_MOTION_DOT":"0.00000462","RCS_SIZE":"LARGE","MEAN_ELEMENT_THEORY":"SGP4","RA_OF_ASC_NODE":"16.9816","OBJECT_ID":"2021-012E","CENTER_NAME":"EARTH","EPOCH":"2021-10-25T13:05:17.123712","BSTAR":"0.00004988100000","GP_ID":"188147482","REV_AT_EPOCH":"3917","ECCENTRICITY":"0.00011220","MEAN_MOTION":"15.06402935","PERIOD":"95.592","LAUNCH_DATE":"2021-02-16","TIME_SYSTEM":"UTC","MEAN_MOTION_DDOT":"0.0000000000000","CLASSIFICATION_TYPE":"U","PERIAPSIS":"546.428","REF_FRAME":"TEME","NORAD_CAT_ID":"47624","OBJECT_TYPE":"PAYLOAD","MEAN_ANOMALY":"266.2024","TLE_LINE1":"1 47624U 21012E   21298.54533708  .00000462  00000-0  49881-4 0  9992","INCLINATION":"53.0562"},{"SEMIMAJOR_AXIS":"6925.338","OBJECT_NAME":"STARLINK-1704","COUNTRY_CODE":"US","TLE_LINE2":"2 47625  53.0567  36.9747 0001010  96.4236 263.6868 15.06403297 38894","FILE":"3183532","APOAPSIS":"547.903","EPHEMERIS_TYPE":"0","DECAY_DATE":null,"SITE":"AFETR","ELEMENT_SET_NO":"999","ARG_OF_PERICENTER":"96.4236","MEAN_MOTION_DOT":"-0.00000087","RCS_SIZE":"LARGE","MEAN_ELEMENT_THEORY":"SGP4","EPOCH":"2021-10-25T13:07:55.901856","RA_OF_ASC_NODE":"36.9747","OBJECT_ID":"2021-012F","CENTER_NAME":"EARTH","LAUNCH_DATE":"2021-02-16","TIME_SYSTEM":"UTC","MEAN_MOTION_DDOT":"0.0000000000000","CLASSIFICATION_TYPE":"U","PERIAPSIS":"546.504","REF_FRAME":"TEME","OBJECT_TYPE":"PAYLOAD","NORAD_CAT_ID":"47625","MEAN_ANOMALY":"263.6868","TLE_LINE1":"1 47625U 21012F   21298.54717479 -.00000087  00000-0  13022-4 0  9994","INCLINATION":"53.0567","BSTAR":"0.00001302200000","GP_ID":"188146980","REV_AT_EPOCH":"3889","ECCENTRICITY":"0.00010100","MEAN_MOTION":"15.06403297","PERIOD":"95.592"},{"OBJECT_ID":"2021-012G","RA_OF_ASC_NODE":"40.3075","CENTER_NAME":"EARTH","EPOCH":"2021-10-24T19:15:45.721728","REV_AT_EPOCH":"3878","GP_ID":"188150194","BSTAR":"0.00001969400000","PERIOD":"95.592","MEAN_MOTION":"15.06401195","ECCENTRICITY":"0.00011400","REF_FRAME":"TEME","PERIAPSIS":"546.420","CLASSIFICATION_TYPE":"U","LAUNCH_DATE":"2021-02-16","TIME_SYSTEM":"UTC","MEAN_MOTION_DDOT":"0.0000000000000","INCLINATION":"53.0562","TLE_LINE1":"1 47626U 21012G   21297.80261252  .00000012  00000-0  19694-4 0  9994","OBJECT_TYPE":"PAYLOAD","NORAD_CAT_ID":"47626","MEAN_ANOMALY":"253.2375","EPHEMERIS_TYPE":"0","APOAPSIS":"547.999","SITE":"AFETR","DECAY_DATE":null,"TLE_LINE2":"2 47626  53.0562  40.3075 0001140 106.8739 253.2375 15.06401195 38782","COUNTRY_CODE":"US","OBJECT_NAME":"STARLINK-1761","SEMIMAJOR_AXIS":"6925.345","FILE":"3183653","ELEMENT_SET_NO":"999","RCS_SIZE":"LARGE","MEAN_MOTION_DOT":"0.00000012","MEAN_ELEMENT_THEORY":"SGP4","ARG_OF_PERICENTER":"106.8739"},{"ELEMENT_SET_NO":"999","ARG_OF_PERICENTER":"51.3426","RCS_SIZE":"LARGE","MEAN_MOTION_DOT":"-0.00010071","MEAN_ELEMENT_THEORY":"SGP4","APOAPSIS":"548.658","EPHEMERIS_TYPE":"0","DECAY_DATE":null,"SITE":"AFETR","SEMIMAJOR_AXIS":"6925.330","OBJECT_NAME":"STARLINK-1972","COUNTRY_CODE":"US","TLE_LINE2":"2 47627  53.0489 301.8290 0002112  51.3426 167.5656 15.06406051 40229","FILE":"3183187","BSTAR":"-0.00065802000000","GP_ID":"188116887","REV_AT_EPOCH":"4022","ECCENTRICITY":"0.00021120","MEAN_MOTION":"15.06406051","PERIOD":"95.592","LAUNCH_DATE":"2021-02-16","TIME_SYSTEM":"UTC","MEAN_MOTION_DDOT":"0.0000000000000","CLASSIFICATION_TYPE":"U","PERIAPSIS":"545.732","REF_FRAME":"TEME","MEAN_ANOMALY":"167.5656","OBJECT_TYPE":"PAYLOAD","NORAD_CAT_ID":"47627","TLE_LINE1":"1 47627U 21012H   21298.58335648 -.00010071  00000-0 -65802-3 0  9991","INCLINATION":"53.0489","RA_OF_ASC_NODE":"301.8290","OBJECT_ID":"2021-012H","CENTER_NAME":"EARTH","EPOCH":"2021-10-25T14:00:01.999872"},{"FILE":"3183187","SEMIMAJOR_AXIS":"6925.375","OBJECT_NAME":"STARLINK-1973","COUNTRY_CODE":"US","TLE_LINE2":"2 47628  53.0578  38.0763 0001108  92.9992 267.1124 15.06391359 38853","DECAY_DATE":null,"SITE":"AFETR","EPHEMERIS_TYPE":"0","APOAPSIS":"548.007","ARG_OF_PERICENTER":"92.9992","RCS_SIZE":"LARGE","MEAN_MOTION_DOT":"-0.00000365","MEAN_ELEMENT_THEORY":"SGP4","ELEMENT_SET_NO":"999","EPOCH":"2021-10-25T07:17:37.766112","CENTER_NAME":"EARTH","OBJECT_ID":"2021-012J","RA_OF_ASC_NODE":"38.0763","OBJECT_TYPE":"PAYLOAD","MEAN_ANOMALY":"267.1124","NORAD_CAT_ID":"47628","TLE_LINE1":"1 47628U 21012J   21298.30390933 -.00000365  00000-0 -56510-5 0  9993","INCLINATION":"53.0578","LAUNCH_DATE":"2021-02-16","TIME_SYSTEM":"UTC","MEAN_MOTION_DDOT":"0.0000000000000","CLASSIFICATION_TYPE":"U","PERIAPSIS":"546.473","REF_FRAME":"TEME","ECCENTRICITY":"0.00011080","PERIOD":"95.593","MEAN_MOTION":"15.06391359","BSTAR":"-0.00000565100000","GP_ID":"188116389","REV_AT_EPOCH":"3885"},{"TLE_LINE2":"2 47629  53.0418 290.1484 0005685 321.7394 131.4745 15.73232425 40410","COUNTRY_CODE":"US","OBJECT_NAME":"STARLINK-1974","SEMIMAJOR_AXIS":"6727.803","FILE":"3183532","APOAPSIS":"353.492","EPHEMERIS_TYPE":"0","SITE":"AFETR","DECAY_DATE":null,"ELEMENT_SET_NO":"999","RCS_SIZE":"LARGE","MEAN_MOTION_DOT":"-0.00018310","MEAN_ELEMENT_THEORY":"SGP4","ARG_OF_PERICENTER":"321.7394","EPOCH":"2021-10-25T22:00:00.999936","OBJECT_ID":"2021-012K","RA_OF_ASC_NODE":"290.1484","CENTER_NAME":"EARTH","REF_FRAME":"TEME","PERIAPSIS":"345.843","CLASSIFICATION_TYPE":"U","LAUNCH_DATE":"2021-02-16","MEAN_MOTION_DDOT":"0.0000000000000","TIME_SYSTEM":"UTC","INCLINATION":"53.0418","TLE_LINE1":"1 47629U 21012K   21298.91667824 -.00018310  00000-0 -12594-3 0  9998","OBJECT_TYPE":"PAYLOAD","MEAN_ANOMALY":"131.4745","NORAD_CAT_ID":"47629","REV_AT_EPOCH":"4041","GP_ID":"188147468","BSTAR":"-0.00012594000000","MEAN_MOTION":"15.73232425","PERIOD":"91.531","ECCENTRICITY":"0.00056850"},{"EPOCH":"2021-10-25T13:35:44.833632","CENTER_NAME":"EARTH","RA_OF_ASC_NODE":"16.8774","OBJECT_ID":"2021-012L","MEAN_ANOMALY":"259.9231","OBJECT_TYPE":"PAYLOAD","NORAD_CAT_ID":"47630","TLE_LINE1":"1 47630U 21012L   21298.56649113  .00001826  00000-0  14142-3 0  9995","INCLINATION":"53.0562","LAUNCH_DATE":"2021-02-16","TIME_SYSTEM":"UTC","MEAN_MOTION_DDOT":"0.0000000000000","CLASSIFICATION_TYPE":"U","PERIAPSIS":"546.459","REF_FRAME":"TEME","ECCENTRICITY":"0.00010800","PERIOD":"95.592","MEAN_MOTION":"15.06402202","BSTAR":"0.00014142000000","GP_ID":"188146973","REV_AT_EPOCH":"3917","FILE":"3183532","SEMIMAJOR_AXIS":"6925.342","OBJECT_NAME":"STARLINK-1983","COUNTRY_CODE":"US","TLE_LINE2":"2 47630  53.0562  16.8774 0001080 100.1880 259.9231 15.06402202 39176","DECAY_DATE":null,"SITE":"AFETR","EPHEMERIS_TYPE":"0","APOAPSIS":"547.955","ARG_OF_PERICENTER":"100.1880","RCS_SIZE":"LARGE","MEAN_MOTION_DOT":"0.00001826","MEAN_ELEMENT_THEORY":"SGP4","ELEMENT_SET_NO":"999"},{"ELEMENT_SET_NO":"999","RCS_SIZE":"LARGE","MEAN_MOTION_DOT":"0.00081947","MEAN_ELEMENT_THEORY":"SGP4","ARG_OF_PERICENTER":"63.6546","APOAPSIS":"365.585","EPHEMERIS_TYPE":"0","SITE":"AFETR","DECAY_DATE":null,"TLE_LINE2":"2 47631  53.0426 291.9253 0004653  63.6546 255.3263 15.68759947 40395","COUNTRY_CODE":"US","OBJECT_NAME":"STARLINK-1985","SEMIMAJOR_AXIS":"6740.584","FILE":"3183601","REV_AT_EPOCH":"4039","GP_ID":"188146992","BSTAR":"0.00070113000000","PERIOD":"91.792","MEAN_MOTION":"15.68759947","ECCENTRICITY":"0.00046530","REF_FRAME":"TEME","PERIAPSIS":"359.312","CLASSIFICATION_TYPE":"U","MEAN_MOTION_DDOT":"0.0000000000000","LAUNCH_DATE":"2021-02-16","TIME_SYSTEM":"UTC","INCLINATION":"53.0426","TLE_LINE1":"1 47631U 21012M   21298.91667824  .00081947  00000-0  70113-3 0  9996","OBJECT_TYPE":"PAYLOAD","MEAN_ANOMALY":"255.3263","NORAD_CAT_ID":"47631","OBJECT_ID":"2021-012M","RA_OF_ASC_NODE":"291.9253","CENTER_NAME":"EARTH","EPOCH":"2021-10-25T22:00:00.999936"}];
